CSS (TIANHE)            
1 48274U 21035A   24282.18797017  .00079364  00000+0  80495-3 0  9991
2 48274  41.4655 113.9317 0003153 155.2458 204.8533 15.64221124196772
